NORAD_CAT_ID,OBJECT_NAME,OBJECT_TYPE,EPOCH,MEAN_MOTION,ECCENTRICITY,INCLINATION,RA_OF_ASC_NODE,ARG_OF_PERICENTER,MEAN_ANOMALY,BSTAR,MEAN_MOTION_DOT,MEAN_MOTION_DDOT,TLE_LINE0,TLE_LINE1,TLE_LINE2,SEMIMAJOR_AXIS,PERIOD,APOGEE,PERIGEE,DECAYED
56466.0,STARLINK-6053,PAYLOAD,2024-02-25 14:43:04,14.98321835,0.0003391,69.9993,217.8818,269.4802,90.5969,0.00018519,2.117e-05,0.0,0 STARLINK-6053,1 56466U 23064U   24056.61325208  .00002117  00000-0  18519-3 0  9994,2 56466  69.9993 217.8818 0003391 269.4802  90.5969 14.98321835 43948,6950.218,96.108,574.44,569.726,0.0
56466.0,STARLINK-6053,PAYLOAD,2024-02-25 21:07:36,14.98327578,0.0003101,69.9994,217.2087,271.0517,89.0287,0.00020705,2.378e-05,0.0,0 STARLINK-6053,1 56466U 23064U   24056.88028884  .00002378  00000-0  20705-3 0  9992,2 56466  69.9994 217.2087 0003101 271.0517  89.0287 14.98327578 43982,6950.2,96.107,574.221,569.91,0.0
56466.0,STARLINK-6053,PAYLOAD,2024-02-26 11:32:49,14.98330899,0.0003077,69.9995,215.694,270.5978,89.4829,0.00010378,1.146e-05,0.0,0 STARLINK-6053,1 56466U 23064U   24057.48113016  .00001146  00000-0  10378-3 0  9998,2 56466  69.9995 215.6940 0003077 270.5978  89.4829 14.98330899 44437,6950.19,96.107,574.194,569.917,0.0
56466.0,STARLINK-6053,PAYLOAD,2024-02-26 14:45:05,14.98330997,0.0003079,69.9995,215.3573,270.5432,89.5374,9.9875e-05,1.099e-05,0.0,0 STARLINK-6053,1 56466U 23064U   24057.61465002  .00001099  00000-0  99875-4 0  9995,2 56466  69.9995 215.3573 0003079 270.5432  89.5374 14.98330997 44090,6950.19,96.107,574.195,569.915,0.0
56466.0,STARLINK-6053,PAYLOAD,2024-02-26 21:09:37,14.98336187,0.0003026,69.9995,214.684,270.6926,89.3887,0.00014439,1.631e-05,0.0,0 STARLINK-6053,1 56466U 23064U   24057.88168471  .00001631  00000-0  14439-3 0  9998,2 56466  69.9995 214.6840 0003026 270.6926  89.3887 14.98336187 44139,6950.174,96.107,574.142,569.936,0.0
56466.0,STARLINK-6053,PAYLOAD,2024-02-27 11:34:50,14.98337002,0.0002867,69.9999,213.1695,267.0012,93.0818,-1.3196e-05,-2.5e-06,0.0,0 STARLINK-6053,1 56466U 23064U   24058.48252631 -.00000250  00000-0 -13196-4 0  9995,2 56466  69.9999 213.1695 0002867 267.0012  93.0818 14.98337002 44585,6950.171,96.107,574.029,570.044,0.0
56466.0,STARLINK-6053,PAYLOAD,2024-02-27 14:47:06,14.98336087,0.0002884,69.9999,212.833,266.7272,93.3557,-2.1779e-05,-3.53e-06,0.0,0 STARLINK-6053,1 56466U 23064U   24058.61604640 -.00000353  00000-0 -21779-4 0  9991,2 56466  69.9999 212.8330 0002884 266.7272  93.3557 14.98336087 44248,6950.174,96.107,574.043,570.035,0.0
56466.0,STARLINK-6053,PAYLOAD,2024-02-27 19:35:30,14.98335694,0.0002926,69.9998,212.3279,267.1031,92.9793,-2.2057e-05,-3.56e-06,0.0,0 STARLINK-6053,1 56466U 23064U   24058.81632567 -.00000356  00000-0 -22057-4 0  9995,2 56466  69.9998 212.3279 0002926 267.1031  92.9793 14.98335694 44272,6950.175,96.107,574.074,570.007,0.0
56466.0,STARLINK-6053,PAYLOAD,2024-02-28 11:36:51,14.9833196,0.0003109,69.9993,210.643,270.5064,89.5739,-5.3696e-05,-7.34e-06,0.0,0 STARLINK-6053,1 56466U 23064U   24059.48392561 -.00000734  00000-0 -53696-4 0  9999,2 56466  69.9993 210.6430 0003109 270.5064  89.5739 14.98331960 44730,6950.187,96.107,574.213,569.891,0.0
56466.0,STARLINK-6053,PAYLOAD,2024-02-28 14:49:07,14.98324454,0.0003085,69.9993,210.3067,269.6198,90.4608,9.2102e-05,1.006e-05,0.0,0 STARLINK-6053,1 56466U 23064U   24059.61744691  .00001006  00000-0  92102-4 0  9995,2 56466  69.9993 210.3067 0003085 269.6198  90.4608 14.98324454 44391,6950.21,96.107,574.219,569.931,0.0
56466.0,STARLINK-6053,PAYLOAD,2024-02-28 19:37:31,14.9833602,0.0002952,69.9999,209.803,268.0234,92.0587,-4.7528e-05,-6.6e-06,0.0,0 STARLINK-6053,1 56466U 23064U   24059.81772197 -.00000660  00000-0 -47528-4 0  9998,2 56466  69.9999 209.8030 0002952 268.0234  92.0587 14.98336020 44426,6950.174,96.107,574.091,569.988,0.0
56466.0,STARLINK-6053,PAYLOAD,2024-02-29 11:38:52,14.9832992,0.0003113,69.9994,208.1189,269.9945,90.0857,-6.9633e-05,-9.24e-06,0.0,0 STARLINK-6053,1 56466U 23064U   24060.48532496 -.00000924  00000-0 -69633-4 0  9993,2 56466  69.9994 208.1189 0003113 269.9945  90.0857 14.98329920 44886,6950.193,96.107,574.222,569.895,0.0
56466.0,STARLINK-6053,PAYLOAD,2024-02-29 14:51:08,14.98329639,0.000312,69.9995,207.7823,270.0337,90.0465,-6.9466e-05,-9.22e-06,0.0,0 STARLINK-6053,1 56466U 23064U   24060.61884508 -.00000922  00000-0 -69466-4 0  9994,2 56466  69.9995 207.7823 0003120 270.0337  90.0465 14.98329639 44548,6950.194,96.107,574.227,569.891,0.0
56466.0,STARLINK-6053,PAYLOAD,2024-02-29 19:39:32,14.98330427,0.0003048,69.9999,207.2781,269.0036,91.0774,-2.9544e-05,-4.46e-06,0.0,0 STARLINK-6053,1 56466U 23064U   24060.81912357 -.00000446  00000-0 -29544-4 0  9994,2 56466  69.9999 207.2781 0003048 269.0036  91.0774 14.98330427 44577,6950.192,96.107,574.175,569.938,0.0
56466.0,STARLINK-6053,PAYLOAD,2024-03-01 11:40:51,14.98330043,0.0003144,70.0,205.5948,270.3999,89.68,0.00032989,3.845e-05,0.0,0 STARLINK-6053,1 56466U 23064U   24061.48671133  .00003845  00000-0  32989-3 0  9992,2 56466  70.0000 205.5948 0003144 270.3999  89.6800 14.98330043 45038,6950.193,96.107,574.243,569.873,0.0
56466.0,STARLINK-6053,PAYLOAD,2024-03-01 14:53:07,14.98343957,0.000308,70.0004,205.258,272.0367,88.0439,0.00015541,1.762e-05,0.0,0 STARLINK-6053,1 56466U 23064U   24061.62022605  .00001762  00000-0  15541-3 0  9993,2 56466  70.0004 205.2580 0003080 272.0367  88.0439 14.98343957 44698,6950.15,96.106,574.155,569.874,0.0
56466.0,STARLINK-6053,PAYLOAD,2024-03-01 19:41:30,14.98353037,0.0003035,70.0002,204.753,270.3519,89.7292,0.00022615,2.608e-05,0.0,0 STARLINK-6053,1 56466U 23064U   24061.82049570  .00002608  00000-0  22615-3 0  9995,2 56466  70.0002 204.7530 0003035 270.3519  89.7292 14.98353037 45084,6950.122,96.106,574.096,569.877,0.0
56466.0,STARLINK-6053,PAYLOAD,2024-03-02 11:42:54,14.98318236,0.000328,70.0,203.07,281.2251,78.8539,-9.0106e-05,-1.168e-05,0.0,0 STARLINK-6053,1 56466U 23064U   24062.48812760 -.00001168  00000-0 -90106-4 0  9990,2 56466  70.0000 203.0700 0003280 281.2251  78.8539 14.98318236 45185,6950.229,96.108,574.374,569.815,0.0
56466.0,STARLINK-6053,PAYLOAD,2024-03-02 13:19:02,14.98318792,0.0003104,69.9998,202.9017,277.8637,82.2169,-8.2663e-05,-1.079e-05,0.0,0 STARLINK-6053,1 56466U 23064U   24062.55488707 -.00001079  00000-0 -82663-4 0  9998,2 56466  69.9998 202.9017 0003104 277.8637  82.2169 14.98318792 44837,6950.228,96.108,574.25,569.935,0.0
56466.0,STARLINK-6053,PAYLOAD,2024-03-02 19:43:34,14.98319552,0.0003246,69.9995,202.2283,272.451,87.6278,-9.6823e-05,-1.248e-05,0.0,0 STARLINK-6053,1 56466U 23064U   24062.82192661 -.00001248  00000-0 -96823-4 0  9990,2 56466  69.9995 202.2283 0003246 272.4510  87.6278 14.98319552 44879,6950.225,96.108,574.346,569.834,0.0
56466.0,STARLINK-6053,PAYLOAD,2024-03-03 02:08:06,14.98325454,0.0003245,69.9995,201.5557,268.9604,91.1183,-0.00011331,-1.445e-05,0.0,0 STARLINK-6053,1 56466U 23064U   24063.08896390 -.00001445  00000-0 -11331-3 0  9998,2 56466  69.9995 201.5557 0003245 268.9604  91.1183 14.98325454 45276,6950.207,96.107,574.327,569.817,0.0
56466.0,STARLINK-6053,PAYLOAD,2024-03-03 13:21:02,14.98335639,0.0003238,69.9995,200.3767,270.185,89.8938,-0.00021756,-2.688e-05,0.0,0 STARLINK-6053,1 56466U 23064U   24063.55628108 -.00002688  00000-0 -21756-3 0  9992,2 56466  69.9995 200.3767 0003238 270.1850  89.8938 14.98335639 44981,6950.175,96.107,574.291,569.79,0.0
56466.0,STARLINK-6053,PAYLOAD,2024-03-03 18:09:26,14.98343169,0.0002999,70.0,199.8722,269.1775,90.9041,-0.00012097,-1.537e-05,0.0,0 STARLINK-6053,1 56466U 23064U   24063.75655271 -.00001537  00000-0 -12097-3 0  9995,2 56466  70.0000 199.8722 0002999 269.1775  90.9041 14.98343169 45370,6950.152,96.106,574.102,569.933,0.0
56466.0,STARLINK-6053,PAYLOAD,2024-03-04 13:23:02,14.98332917,0.0002851,70.0002,197.852,270.964,89.1192,0.00024595,2.843e-05,0.0,0 STARLINK-6053,1 56466U 23064U   24064.55766623  .00002843  00000-0  24595-3 0  9993,2 56466  70.0002 197.8520 0002851 270.9640  89.1192 14.98332917 45134,6950.184,96.107,574.03,570.067,0.0
56466.0,STARLINK-6053,PAYLOAD,2024-03-04 18:11:26,14.98337556,0.0002808,70.0004,197.3472,270.7772,89.3065,0.00028268,3.282e-05,0.0,0 STARLINK-6053,1 56466U 23064U   24064.75794155  .00003282  00000-0  28268-3 0  9995,2 56466  70.0004 197.3472 0002808 270.7772  89.3065 14.98337556 45521,6950.17,96.107,573.986,570.083,0.0
56466.0,STARLINK-6053,PAYLOAD,2024-03-05 13:25:05,14.98319055,0.0003002,70.0008,195.3281,268.3744,91.7072,-0.00012267,-1.556e-05,0.0,0 STARLINK-6053,1 56466U 23064U   24065.55908596 -.00001556  00000-0 -12267-3 0  9996,2 56466  70.0008 195.3281 0003002 268.3744  91.7072 14.98319055 45282,6950.227,96.108,574.178,570.005,0.0
56466.0,STARLINK-6053,PAYLOAD,2024-03-05 18:13:29,14.98319222,0.0003092,70.0006,194.823,270.8776,89.2029,-0.00014621,-1.837e-05,0.0,0 STARLINK-6053,1 56466U 23064U   24065.75936774 -.00001837  00000-0 -14621-3 0  9995,2 56466  70.0006 194.8230 0003092 270.8776  89.2029 14.98319222 45673,6950.226,96.108,574.24,569.942,0.0
56466.0,STARLINK-6053,PAYLOAD,2024-03-06 11:50:57,14.9833712,0.0003214,70.0005,192.9713,270.3487,89.7303,-0.00011328,-1.445e-05,0.0,0 STARLINK-6053,1 56466U 23064U   24066.49371575 -.00001445  00000-0 -11328-3 0  9995,2 56466  70.0005 192.9713 0003214 270.3487  89.7303 14.98337120 45786,6950.171,96.107,574.27,569.802,0.0
56466.0,STARLINK-6053,PAYLOAD,2024-03-06 13:27:05,14.98337405,0.0003206,70.0004,192.8029,270.1178,89.9614,-0.00010187,-1.309e-05,0.0,0 STARLINK-6053,1 56466U 23064U   24066.56047501 -.00001309  00000-0 -10187-3 0  9993,2 56466  70.0004 192.8029 0003206 270.1178  89.9614 14.98337405 45435,6950.17,96.107,574.263,569.807,0.0
56466.0,STARLINK-6053,PAYLOAD,2024-03-06 18:15:28,14.98342895,0.000319,70.0005,192.2979,270.425,89.6543,-3.8623e-05,-5.54e-06,0.0,0 STARLINK-6053,1 56466U 23064U   24066.76074874 -.00000554  00000-0 -38623-4 0  9995,2 56466  70.0005 192.2979 0003190 270.4250  89.6543 14.98342895 45820,6950.153,96.106,574.235,569.801,0.0
